#cP2020 10 25  0  0  0.00000000      96 ORBIT IGb14 HLM  IGS
## 2129      0.00000000   900.00000000 59147 0.0000000000000
+   31   G01G02G03G04G05G06G07G08G09G10G11G12G13G15G16G17G18
+        G19G20G21G22G23G24G25G26G27G28G29G30G31G32  0  0  0
+          0  0  0  0  0  0  0  0  0  0  0  0  0  0  0  0  0
+          0  0  0  0  0  0  0  0  0  0  0  0  0  0  0  0  0
+          0  0  0  0  0  0  0  0  0  0  0  0  0  0  0  0  0
++         2  2  1  2  1  2  2  2  2  1  1  2  2  2  2  2  2
++         2  2  2  1  2  2  2  2  2  2  2  2  2  1  0  0  0
++         0  0  0  0  0  0  0  0  0  0  0  0  0  0  0  0  0
++         0  0  0  0  0  0  0  0  0  0  0  0  0  0  0  0  0
++         0  0  0  0  0  0  0  0  0  0  0  0  0  0  0  0  0
%c G  cc GPS ccc cccc cccc cccc cccc ccccc ccccc ccccc ccccc
%c cc cc ccc ccc cccc cccc cccc cccc ccccc ccccc ccccc ccccc
%f  1.2500000  1.025000000  0.00000000000  0.000000000000000
%f  0.0000000  0.000000000  0.00000000000  0.000000000000000
%i    0    0    0    0      0      0      0      0         0
%i    0    0    0    0      0      0      0      0         0
/* FINAL ORBIT COMBINATION FROM WEIGHTED AVERAGE OF:        
/* cod emr esa gfz grg jpl mit ngs sio                      
/* REFERENCED TO IGS TIME (IGST) AND TO WEIGHTED MEAN POLE: 
/* PCV:IGS14_2129 OL/AL:FES2004  NONE     Y  ORB:CMB CLK:CMB
*  2020 10 25 23 15  0.00000000
PG01 -21866.689086 -14939.761211  -3930.406280    813.149641  9  4  4  87       
PG02   5410.665031  17582.514375  19811.295967   -534.296424  8  3  5  76       
PG03 -12724.184103 -15079.005566  17746.268539   -336.122629  4  3  6  68       
PG04 -17200.742796  -5774.556166  19414.686058   -148.954357  6  3  5  84       
PG05   2500.072985  26324.317142  -1098.152573    -24.282033  7  5  6  91       
PG06 -10712.117197  10809.048623  21827.137127   -335.359454  5  2  4  87       
PG07 -23895.983182  -4152.488478 -11046.253260   -400.991098  9  7  5  90       
PG08  -8324.335190 -12517.899280 -21885.437884    -52.735843  8  7  9  82       
PG09 -23336.627708   5304.952212  11476.570254   -305.067746  6  5  4 104       
PG10  11898.387762 -15261.911431 -17984.180381   -488.756453  4  6  5 112       
PG11 -16881.239218 -12810.894275 -16263.007355   -126.766878  7  5  5  63       
PG12  10378.838529  18016.019163  16379.963314     49.170276  4  1  5  82       
PG13  -1828.679487  16546.335536 -20801.834673     58.350675  7  7  6 103       
PG15  10920.379388  11849.179268 -21473.039193   -194.451860  7  5  5  99       
PG16   -249.232843 -26199.175940  -2622.438728   -227.421472  9  6  7  94       
PG17 -20527.321960  15803.964545   6198.684113    344.951822  6  5  6 102       
PG18  23086.691549   2830.488669 -12883.236437    312.457090 10  6  5  92       
PG19 -17042.582472  16668.540055  11345.359371    -86.935303  5  4  5  98       
PG20  15554.132320  -2778.477734 -21422.159914    526.279931  6  8  5  89       
PG21 -13177.753550 -17333.571803 -14718.163311     61.576679  9  6  5  48       
PG22 -11289.589449 -21271.256789  11567.836063   -738.697829  5  1  6  74       
PG23  14838.182161  -4487.133738 -21595.457159     91.433637  6  7  5  98       
PG24  20633.579431  15423.794239  -7459.076055    -20.255945  8  5  4  95       
PG25  14890.721093   5154.870232  21179.927777     11.249543  5  2  3  84       
PG26   5787.287077 -23662.265657  10253.903767    301.263444  5  4  6  95       
PG27   4013.933895 -17814.540857 -19304.990701   -426.706761  6  5  7  81       
PG28 -12163.547377  16485.360001 -16412.938296    663.392763  7  7  3  71       
PG29  22728.186502  -1735.715015  13637.174063   -223.118693  7  5  5  91       
PG30 -18889.694987   4496.665003 -18162.303186   -324.046674  9  6  7  47       
PG31   9278.179399 -12245.427953  21628.490961    -77.286802  6     6  77       
PG32  19831.544267 -16789.817576   5161.932352    361.325225  5  4  6 107       
*  2020 10 25 23 30  0.00000000
PG01 -21280.422026 -14824.572699  -6724.153298    813.147162  9  3  5  93       
PG02   3338.881534  16829.206404  20926.891515   -534.300603  8  3  5  94       
PG03 -12700.206341 -17020.797926  15931.164505   -336.131847  4  3  7  84       
PG04 -15311.601553  -7062.144979  20534.921996   -148.957703  7  4  6  77       
PG05   2205.694760  26298.690141   1753.910014    -24.282635  7  5  6 109       
PG06 -12882.877435   9688.977401  21171.433480   -335.361368  5  2  4  93       
PG07 -24822.003482  -4869.865263  -8540.728902   -400.998078  9  7  5 103       
PG08  -6256.314168 -13914.863543 -21706.398906    -52.737478  8  7  9  57       
PG09 -22267.359016   4292.900653  13779.132126   -305.072297  6  5  4 102       
PG10  12179.170572 -13110.197745 -19450.197797   -488.764869  3  7  5 111       
PG11 -14982.344323 -13079.674764 -17907.157077   -126.757657  7  5  6  88       
PG12  10218.600431  19802.129187  14332.639589     49.165663  5  2  6  91       
PG13  -3924.396616  17479.051877 -19703.674942     58.353916  8  7  7  91       
PG15   9072.325537  13369.887540 -21406.182436   -194.449472  7  5  5  93       
PG16     -0.935045 -26304.143028    287.104097   -227.426202  9  6  7  94       
PG17 -21049.335770  15895.999042   3364.390107    344.956061  6  5  6  85       
PG18  24173.976867   3625.554399 -10465.229253    312.462098 11  6  5  86       
PG19 -18180.664689  17057.397176   8766.627557    -86.930885  6  5  5  88       
PG20  16036.257926   -391.883110 -21265.130811    526.279930  5  8  6 102       
PG21 -11345.056262 -16781.296990 -16632.222426     61.580111 10  7  5  89       
PG22 -11193.174083 -22459.845401   9128.318980   -738.693552  5  1  6  98       
PG23  15078.216022  -2022.418366 -21802.101343     91.438802  6  8  5  83       
PG24  19640.044603  15297.631189 -10002.263072    -20.256029  8  6  4  96       
PG25  14986.062847   7576.896079  20402.478374     11.255138  5  2  3  90       
PG26   6193.914272 -22370.908886  12651.227255    301.269012  5  5  6  96       
PG27   5830.124395 -18875.023715 -17729.428099   -426.714454  5  5  7  99       
PG28 -12239.125148  14409.592748 -18143.087782    663.388542  8  8  3  94       
PG29  21331.488112   -784.976851  15799.391970   -223.126061  7  5  6 100       
PG30 -20565.864392   3403.838462 -16529.210724   -324.052774  9  6  7  53       
PG31  11448.464124 -11080.879778  21255.256350    -77.288894  6  2  7  68       
PG32  20334.577168 -16800.013219   2347.444729    361.328622  5  4  6 106       
*  2020 10 25 23 45  0.00000000
PG01 -20407.417905 -14620.186361  -9405.160583    813.144677  9  3  5  73       
PG02   1133.242344  16155.260761  21701.980053   -534.304948  9  3  6  98       
PG03 -12752.373567 -18740.303937  13841.521753   -336.141034  5  4  7  46       
PG04 -13404.513914  -8508.089181  21302.227911   -148.961052  7  4  6  66       
PG05   1858.999801  25969.419969   4575.390933    -24.283595  7  6  6  97       
PG06 -15025.121841   8728.063127  20153.459858   -335.363254  6  3  4  92       
PG07 -25516.908437  -5419.063943  -5890.431879   -401.005061 10  6  5  99       
PG08  -4296.252248 -15395.929607 -21152.670909    -52.739635  9  7 10  75       
PG09 -21055.677628   3075.236152  15843.892061   -305.076752  6  5  5  95       
PG10  12590.611633 -10831.141241 -20576.556533   -488.773265  3  8  5 106       
PG11 -12937.102255 -13443.665653 -19250.082918   -126.748213  8  5  6  82       
PG12  10143.734884  21345.168132  12036.810870     49.161020  5  3  7  80       
PG13  -5844.646336  18452.120629 -18269.117503     58.357771  8  6  7  58       
PG15   7316.045999  14961.250342 -20981.546201   -194.447077  7  5  5  88       
PG16    254.614664 -26088.836264   3191.536556   -227.431011  8  7  7  67       
PG17 -21298.417057  15834.133370    472.433198    344.960970  6  6  6  82       
PG18  25043.108402   4245.370863  -7867.718788    312.467101 11  6  6  94       
PG19 -19033.988605  17352.095283   6034.690713    -86.926371  7  6  6  85       
PG20  16622.904381   1929.492201 -20745.335351    526.279393  5  8  6  81       
PG21  -9287.020278 -16256.061541 -18248.421331     61.583082 10  7  5  76       
PG22 -11093.515649 -23377.078585   6534.208368   -738.689138  5  1  7  93       
PG23  15447.150892    428.315650 -21634.663310     91.444025  7  8  5  68       
PG24  18383.265961  15129.401093 -12378.417275    -20.256751  8  6  4  95       
PG25  15194.190516   9879.049637  19268.530402     11.260695  5  2  3  75       
PG26   6704.114817 -20845.136434  14827.758894    301.274558  5  5  6  89       
PG27   7432.650628 -19915.598498 -15848.235506   -426.722135  5  6  7  95       
PG28 -12432.361427  12155.001144 -19548.104642    663.384532  8  8  4  74       
PG29  19797.183407    368.545326  17689.612780   -223.132997  7  6  6 100       
PG30 -22110.514909   2478.967485 -14613.048979   -324.058903 10  6  7  76       
PG31  13614.638420 -10058.168764  20516.430492    -77.291124  6  3  7  54       
PG32  20581.389640 -16639.663111   -507.800586    361.332007  5  5  6  88       
EOF
